
# Worst residual: 13.38 km
# MJD 58143.000000 (2018 Jan 25  0:00)
1963-039C = NORAD 00692 = Vela 1B
1 00692U 63039C   18025.49919926  .00000000  00000-0  00000-0 0    06
2 00692 030.8320 347.0087 5740285 201.9550 298.6636 00.22070360    07

# Worst residual: 15.82 km
# MJD 58144.000000 (2018 Jan 26  0:00)
1963-039C = NORAD 00692 = Vela 1B
1 00692U 63039C   18026.49919926  .00000000  00000-0  00000-0 0    07
2 00692 030.8333 346.9647 5742774 202.0791 018.0391 00.22073283    04

# Worst residual: 9.15 km
# MJD 58145.000000 (2018 Jan 27  0:00)
1963-039C = NORAD 00692 = Vela 1B
1 00692U 63039C   18027.49919926  .00000000  00000-0  00000-0 0    08
2 00692 030.8196 346.9624 5741645 202.1117 097.4637 00.22075363    00

# Worst residual: 11.58 km
# MJD 58146.000000 (2018 Jan 28  0:00)
1963-039C = NORAD 00692 = Vela 1B
1 00692U 63039C   18028.49919926  .00000000  00000-0  00000-0 0    09
2 00692 030.8210 346.9480 5748459 202.0314 177.1809 00.22108017    05

# Worst residual: 12.30 km
# MJD 58147.000000 (2018 Jan 29  0:00)
1963-039C = NORAD 00692 = Vela 1B
1 00692U 63039C   18029.49919926  .00000000  00000-0  00000-0 0    00
2 00692 030.8120 346.9347 5751891 201.9625 256.9913 00.22097955    04

# Worst residual: 32.56 km
# MJD 58148.000000 (2018 Jan 30  0:00)
1963-039C = NORAD 00692 = Vela 1B
1 00692U 63039C   18030.49919926  .00000000  00000-0  00000-0 0    02
2 00692 030.7981 346.9145 5748040 201.9413 336.4892 00.22089096    08

# Worst residual: 34.29 km
# MJD 58149.000000 (2018 Jan 31  0:00)
1963-039C = NORAD 00692 = Vela 1B
1 00692U 63039C   18031.49919926  .00000000  00000-0  00000-0 0    03
2 00692 030.7828 346.8931 5744875 201.8838 056.0944 00.22152835    07

# Worst residual: 13.01 km
# MJD 58150.000000 (2018 Feb  1  0:00)
1963-039C = NORAD 00692 = Vela 1B
1 00692U 63039C   18032.49919926  .00000000  00000-0  00000-0 0    04
2 00692 030.7684 346.8767 5754168 202.0936 135.1454 00.22082775    02

# Worst residual: 8.28 km
# MJD 58151.000000 (2018 Feb  2  0:00)
1963-039C = NORAD 00692 = Vela 1B
1 00692U 63039C   18033.49919926  .00000000  00000-0  00000-0 0    05
2 00692 030.7592 346.8625 5750928 202.1524 214.4793 00.22070557    09

# Worst residual: 40.27 km
# MJD 58152.000000 (2018 Feb  3  0:00)
1963-039C = NORAD 00692 = Vela 1B
1 00692U 63039C   18034.49919926  .00000000  00000-0  00000-0 0    06
2 00692 030.7500 346.8526 5754926 202.0132 294.2110 00.22012541    02

# Worst residual: 54.30 km
# MJD 58153.000000 (2018 Feb  4  0:00)
1963-039C = NORAD 00692 = Vela 1B
1 00692U 63039C   18035.49919926  .00000000  00000-0  00000-0 0    07
2 00692 030.7509 346.8240 5771785 202.2775 013.4335 00.22001067    02

# Worst residual: 8.76 km
# MJD 58154.000000 (2018 Feb  5  0:00)
1963-039C = NORAD 00692 = Vela 1B
1 00692U 63039C   18036.49919926  .00000000  00000-0  00000-0 0    08
2 00692 030.7313 346.8345 5754089 202.2993 092.9849 00.22075177    06

# Worst residual: 2.05 km
# MJD 58155.000000 (2018 Feb  6  0:00)
1963-039C = NORAD 00692 = Vela 1B
1 00692U 63039C   18037.49919926  .00000000  00000-0  00000-0 0    09
2 00692 030.7279 346.8202 5755798 202.3059 172.4627 00.22084268    00

# Worst residual: 1.90 km
# MJD 58156.000000 (2018 Feb  7  0:00)
1963-039C = NORAD 00692 = Vela 1B
1 00692U 63039C   18038.49919926  .00000000  00000-0  00000-0 0    00
2 00692 030.7288 346.8189 5757396 202.3259 251.9118 00.22086107    04

# Worst residual: 11.93 km
# MJD 58157.000000 (2018 Feb  8  0:00)
1963-039C = NORAD 00692 = Vela 1B
1 00692U 63039C   18039.49919926  .00000000  00000-0  00000-0 0    01
2 00692 030.7176 346.7976 5759551 202.3451 331.3880 00.22072396    06

# Worst residual: 13.44 km
# MJD 58158.000000 (2018 Feb  9  0:00)
1963-039C = NORAD 00692 = Vela 1B
1 00692U 63039C   18040.49919926  .00000000  00000-0  00000-0 0    03
2 00692 030.7148 346.7932 5760016 202.4645 050.7401 00.22059113    04

# Worst residual: 6.72 km
# MJD 58159.000000 (2018 Feb 10  0:00)
1963-039C = NORAD 00692 = Vela 1B
1 00692U 63039C   18041.49919926  .00000000  00000-0  00000-0 0    04
2 00692 030.7006 346.7783 5755509 202.4402 130.3244 00.22085051    03

# Worst residual: 9.20 km
# MJD 58160.000000 (2018 Feb 11  0:00)
1963-039C = NORAD 00692 = Vela 1B
1 00692U 63039C   18042.49919926  .00000000  00000-0  00000-0 0    05
2 00692 030.6885 346.7617 5751987 202.4178 209.9382 00.22080147    06

# Worst residual: 11.84 km
# MJD 58161.000000 (2018 Feb 12  0:00)
1963-039C = NORAD 00692 = Vela 1B
1 00692U 63039C   18043.49919926  .00000000  00000-0  00000-0 0    06
2 00692 030.6763 346.7466 5750332 202.3378 289.5503 00.22043790    09

# Worst residual: 21.90 km
# MJD 58162.000000 (2018 Feb 13  0:00)
1963-039C = NORAD 00692 = Vela 1B
1 00692U 63039C   18044.49919926  .00000000  00000-0  00000-0 0    07
2 00692 030.6639 346.7327 5746651 202.4541 008.8806 00.22108095    07

# Worst residual: 20.50 km
# MJD 58163.000000 (2018 Feb 14  0:00)
1963-039C = NORAD 00692 = Vela 1B
1 00692U 63039C   18045.49919926  .00000000  00000-0  00000-0 0    08
2 00692 030.6517 346.7136 5756305 202.4790 088.2343 00.22086592    08

# Worst residual: 6.68 km
# MJD 58164.000000 (2018 Feb 15  0:00)
1963-039C = NORAD 00692 = Vela 1B
1 00692U 63039C   18046.49919926  .00000000  00000-0  00000-0 0    09
2 00692 030.6387 346.6957 5770372 202.5136 167.5498 00.22098766    06

# Worst residual: 26.45 km
# MJD 58165.000000 (2018 Feb 16  0:00)
1963-039C = NORAD 00692 = Vela 1B
1 00692U 63039C   18047.49919926  .00000000  00000-0  00000-0 0    00
2 00692 030.6282 346.6819 5774794 202.4337 247.3735 00.22090586    04

# Worst residual: 61.92 km
# MJD 58166.000000 (2018 Feb 17  0:00)
1963-039C = NORAD 00692 = Vela 1B
1 00692U 63039C   18048.49919926  .00000000  00000-0  00000-0 0    01
2 00692 030.6154 346.6640 5797194 202.2718 327.2870 00.21959045    05

# Worst residual: 40.38 km
# MJD 58167.000000 (2018 Feb 18  0:00)
1963-039C = NORAD 00692 = Vela 1B
1 00692U 63039C   18049.49919926  .00000000  00000-0  00000-0 0    02
2 00692 030.6145 346.6640 5784585 202.5568 046.5109 00.22072405    04

# Worst residual: 19.08 km
# MJD 58168.000000 (2018 Feb 19  0:00)
1963-039C = NORAD 00692 = Vela 1B
1 00692U 63039C   18050.49919926  .00000000  00000-0  00000-0 0    04
2 00692 030.5647 346.6644 5772773 202.6446 125.9484 00.22066072    07
